STARLINK-36787          
1 68094U 26042AB  26086.66668981 -.00060756  00000+0 -39459-3 0  9991
2 68094  53.1593 104.8129 0001085  94.2361 293.8406 15.75263541  4936
STARLINK-36790          
1 68095U 26042AC  26087.16668981 -.00133544  00000+0 -87801-3 0  9998
2 68095  53.1591 102.1163 0001100  93.0240 355.1262 15.75311083  5012
STARLINK-36328          
1 68096U 26042AD  26086.50369902 -.00796908  00000+0 -49254-2 0  9995
2 68096  53.1583 105.2594 0000907 116.3541 243.7574 15.78521578  4891
STARLINK-36853          
1 68097U 26042AE  26086.75750165  .00411016  00000+0  19783-2 0  9994
2 68097  53.1580 103.9995 0003142  75.7895 284.3477 15.80984131  4932
GLOBAL-34               
1 68098U 26043A   26086.92885447  .00012183  00000+0  39525-3 0  9996
2 68098  42.0228 330.2021 0003894  48.7864 311.3308 15.31837489  3363
STARLINK-37022          
1 68101U 26044A   26087.13742468  .00137858  00000+0  90743-3 0  9997
2 68101  97.2842  48.1797 0001452  86.3084 273.8347 15.75262521  4382
STARLINK-37046          
1 68102U 26044B   26087.13636918  .00177702  00000+0  11636-2 0  9995
2 68102  97.2841  48.1821 0001700 111.8437 248.3009 15.75269212  4388
STARLINK-37018          
1 68103U 26044C   26087.13495935  .00160016  00000+0  10508-2 0  9995
2 68103  97.2842  48.1838 0001471 110.5737 249.5687 15.75253425  4386
STARLINK-37041          
1 68104U 26044D   26087.13390192  .00239796  00000+0  15584-2 0  9996
2 68104  97.2842  48.1853 0001675 109.6143 250.5303 15.75270415  4385
STARLINK-37021          
1 68105U 26044E   26087.13248425  .00313652  00000+0  20150-2 0  9997
2 68105  97.2842  48.1867 0002707 117.2207 242.9334 15.75332280  4382
STARLINK-37024          
1 68106U 26044F   26087.13142968  .00248233  00000+0  16101-2 0  9996
2 68106  97.2842  48.1876 0002127 117.2188 242.9294 15.75291832  4389
STARLINK-37005          
1 68107U 26044G   26087.13425497  .00101209  00000+0  67023-3 0  9999
2 68107  97.2844  48.1846 0002106 109.3145 250.8348 15.75229102  4380
