CCSDS_OMM_VERS = 2.0
CREATION_DATE  = 
ORIGINATOR     = 

OBJECT_NAME    = STARLINK-36787
OBJECT_ID      = 2026-042AB
CENTER_NAME    = EARTH
REF_FRAME      = TEME
TIME_SYSTEM    = UTC
MEAN_ELEMENT_THEORY = SGP/SGP4

EPOCH          = 2026-03-27T16:00:01.999584
MEAN_MOTION    = 15.75263541
ECCENTRICITY   = .00010853
INCLINATION    = 53.1593
RA_OF_ASC_NODE = 104.8129
ARG_OF_PERICENTER = 94.2361
MEAN_ANOMALY   = 293.8406

EPHEMERIS_TYPE = 0
CLASSIFICATION_TYPE = U
NORAD_CAT_ID   = 68094
ELEMENT_SET_NO = 999
REV_AT_EPOCH   = 493
BSTAR          = -.39458536E-3
MEAN_MOTION_DOT = -.60756E-3
MEAN_MOTION_DDOT = 0

CCSDS_OMM_VERS = 2.0
CREATION_DATE  = 
ORIGINATOR     = 

OBJECT_NAME    = STARLINK-36790
OBJECT_ID      = 2026-042AC
CENTER_NAME    = EARTH
REF_FRAME      = TEME
TIME_SYSTEM    = UTC
MEAN_ELEMENT_THEORY = SGP/SGP4

EPOCH          = 2026-03-28T04:00:01.999584
MEAN_MOTION    = 15.75311083
ECCENTRICITY   = .00011
INCLINATION    = 53.1591
RA_OF_ASC_NODE = 102.1163
ARG_OF_PERICENTER = 93.0240
MEAN_ANOMALY   = 355.1262

EPHEMERIS_TYPE = 0
CLASSIFICATION_TYPE = U
NORAD_CAT_ID   = 68095
ELEMENT_SET_NO = 999
REV_AT_EPOCH   = 501
BSTAR          = -.87801E-3
MEAN_MOTION_DOT = -.133544E-2
MEAN_MOTION_DDOT = 0

CCSDS_OMM_VERS = 2.0
CREATION_DATE  = 
ORIGINATOR     = 

OBJECT_NAME    = STARLINK-36328
OBJECT_ID      = 2026-042AD
CENTER_NAME    = EARTH
REF_FRAME      = TEME
TIME_SYSTEM    = UTC
MEAN_ELEMENT_THEORY = SGP/SGP4

EPOCH          = 2026-03-27T12:05:19.595328
MEAN_MOTION    = 15.78521578
ECCENTRICITY   = .0000907
INCLINATION    = 53.1583
RA_OF_ASC_NODE = 105.2594
ARG_OF_PERICENTER = 116.3541
MEAN_ANOMALY   = 243.7574

EPHEMERIS_TYPE = 0
CLASSIFICATION_TYPE = U
NORAD_CAT_ID   = 68096
ELEMENT_SET_NO = 999
REV_AT_EPOCH   = 489
BSTAR          = -.49254E-2
MEAN_MOTION_DOT = -.796908E-2
MEAN_MOTION_DDOT = 0

CCSDS_OMM_VERS = 2.0
CREATION_DATE  = 
ORIGINATOR     = 

OBJECT_NAME    = STARLINK-36853
OBJECT_ID      = 2026-042AE
CENTER_NAME    = EARTH
REF_FRAME      = TEME
TIME_SYSTEM    = UTC
MEAN_ELEMENT_THEORY = SGP/SGP4

EPOCH          = 2026-03-27T18:10:48.142560
MEAN_MOTION    = 15.80984131
ECCENTRICITY   = .00031425
INCLINATION    = 53.1580
RA_OF_ASC_NODE = 103.9995
ARG_OF_PERICENTER = 75.7895
MEAN_ANOMALY   = 284.3477

EPHEMERIS_TYPE = 0
CLASSIFICATION_TYPE = U
NORAD_CAT_ID   = 68097
ELEMENT_SET_NO = 999
REV_AT_EPOCH   = 493
BSTAR          = .19782616E-2
MEAN_MOTION_DOT = .411016E-2
MEAN_MOTION_DDOT = 0

CCSDS_OMM_VERS = 2.0
CREATION_DATE  = 
ORIGINATOR     = 

OBJECT_NAME    = GLOBAL-34
OBJECT_ID      = 2026-043A
CENTER_NAME    = EARTH
REF_FRAME      = TEME
TIME_SYSTEM    = UTC
MEAN_ELEMENT_THEORY = SGP/SGP4

EPOCH          = 2026-03-27T22:17:33.026208
MEAN_MOTION    = 15.31837489
ECCENTRICITY   = .0003894
INCLINATION    = 42.0228
RA_OF_ASC_NODE = 330.2021
ARG_OF_PERICENTER = 48.7864
MEAN_ANOMALY   = 311.3308

EPHEMERIS_TYPE = 0
CLASSIFICATION_TYPE = U
NORAD_CAT_ID   = 68098
ELEMENT_SET_NO = 999
REV_AT_EPOCH   = 336
BSTAR          = .39525E-3
MEAN_MOTION_DOT = .12183E-3
MEAN_MOTION_DDOT = 0

CCSDS_OMM_VERS = 2.0
CREATION_DATE  = 
ORIGINATOR     = 

OBJECT_NAME    = STARLINK-37022
OBJECT_ID      = 2026-044A
CENTER_NAME    = EARTH
REF_FRAME      = TEME
TIME_SYSTEM    = UTC
MEAN_ELEMENT_THEORY = SGP/SGP4

EPOCH          = 2026-03-28T03:17:53.492352
MEAN_MOTION    = 15.75262521
ECCENTRICITY   = .0001452
INCLINATION    = 97.2842
RA_OF_ASC_NODE = 48.1797
ARG_OF_PERICENTER = 86.3084
MEAN_ANOMALY   = 273.8347

EPHEMERIS_TYPE = 0
CLASSIFICATION_TYPE = U
NORAD_CAT_ID   = 68101
ELEMENT_SET_NO = 999
REV_AT_EPOCH   = 438
BSTAR          = .90743E-3
MEAN_MOTION_DOT = .137858E-2
MEAN_MOTION_DDOT = 0

CCSDS_OMM_VERS = 2.0
CREATION_DATE  = 
ORIGINATOR     = 

OBJECT_NAME    = STARLINK-37046
OBJECT_ID      = 2026-044B
CENTER_NAME    = EARTH
REF_FRAME      = TEME
TIME_SYSTEM    = UTC
MEAN_ELEMENT_THEORY = SGP/SGP4

EPOCH          = 2026-03-28T03:16:22.297152
MEAN_MOTION    = 15.75269212
ECCENTRICITY   = .00017
INCLINATION    = 97.2841
RA_OF_ASC_NODE = 48.1821
ARG_OF_PERICENTER = 111.8437
MEAN_ANOMALY   = 248.3009

EPHEMERIS_TYPE = 0
CLASSIFICATION_TYPE = U
NORAD_CAT_ID   = 68102
ELEMENT_SET_NO = 999
REV_AT_EPOCH   = 438
BSTAR          = .11636E-2
MEAN_MOTION_DOT = .177702E-2
MEAN_MOTION_DDOT = 0

CCSDS_OMM_VERS = 2.0
CREATION_DATE  = 
ORIGINATOR     = 

OBJECT_NAME    = STARLINK-37018
OBJECT_ID      = 2026-044C
CENTER_NAME    = EARTH
REF_FRAME      = TEME
TIME_SYSTEM    = UTC
MEAN_ELEMENT_THEORY = SGP/SGP4

EPOCH          = 2026-03-28T03:14:20.487840
MEAN_MOTION    = 15.75253425
ECCENTRICITY   = .0001471
INCLINATION    = 97.2842
RA_OF_ASC_NODE = 48.1838
ARG_OF_PERICENTER = 110.5737
MEAN_ANOMALY   = 249.5687

EPHEMERIS_TYPE = 0
CLASSIFICATION_TYPE = U
NORAD_CAT_ID   = 68103
ELEMENT_SET_NO = 999
REV_AT_EPOCH   = 438
BSTAR          = .10508E-2
MEAN_MOTION_DOT = .160016E-2
MEAN_MOTION_DDOT = 0

CCSDS_OMM_VERS = 2.0
CREATION_DATE  = 
ORIGINATOR     = 

OBJECT_NAME    = STARLINK-37041
OBJECT_ID      = 2026-044D
CENTER_NAME    = EARTH
REF_FRAME      = TEME
TIME_SYSTEM    = UTC
MEAN_ELEMENT_THEORY = SGP/SGP4

EPOCH          = 2026-03-28T03:12:49.125888
MEAN_MOTION    = 15.75270415
ECCENTRICITY   = .0001675
INCLINATION    = 97.2842
RA_OF_ASC_NODE = 48.1853
ARG_OF_PERICENTER = 109.6143
MEAN_ANOMALY   = 250.5303

EPHEMERIS_TYPE = 0
CLASSIFICATION_TYPE = U
NORAD_CAT_ID   = 68104
ELEMENT_SET_NO = 999
REV_AT_EPOCH   = 438
BSTAR          = .15584E-2
MEAN_MOTION_DOT = .239796E-2
MEAN_MOTION_DDOT = 0

CCSDS_OMM_VERS = 2.0
CREATION_DATE  = 
ORIGINATOR     = 

OBJECT_NAME    = STARLINK-37021
OBJECT_ID      = 2026-044E
CENTER_NAME    = EARTH
REF_FRAME      = TEME
TIME_SYSTEM    = UTC
MEAN_ELEMENT_THEORY = SGP/SGP4

EPOCH          = 2026-03-28T03:10:46.639200
MEAN_MOTION    = 15.75332280
ECCENTRICITY   = .0002707
INCLINATION    = 97.2842
RA_OF_ASC_NODE = 48.1867
ARG_OF_PERICENTER = 117.2207
MEAN_ANOMALY   = 242.9334

EPHEMERIS_TYPE = 0
CLASSIFICATION_TYPE = U
NORAD_CAT_ID   = 68105
ELEMENT_SET_NO = 999
REV_AT_EPOCH   = 438
BSTAR          = .2015E-2
MEAN_MOTION_DOT = .313652E-2
MEAN_MOTION_DDOT = 0

CCSDS_OMM_VERS = 2.0
CREATION_DATE  = 
ORIGINATOR     = 

OBJECT_NAME    = STARLINK-37024
OBJECT_ID      = 2026-044F
CENTER_NAME    = EARTH
REF_FRAME      = TEME
TIME_SYSTEM    = UTC
MEAN_ELEMENT_THEORY = SGP/SGP4

EPOCH          = 2026-03-28T03:09:15.524352
MEAN_MOTION    = 15.75291832
ECCENTRICITY   = .0002127
INCLINATION    = 97.2842
RA_OF_ASC_NODE = 48.1876
ARG_OF_PERICENTER = 117.2188
MEAN_ANOMALY   = 242.9294

EPHEMERIS_TYPE = 0
CLASSIFICATION_TYPE = U
NORAD_CAT_ID   = 68106
ELEMENT_SET_NO = 999
REV_AT_EPOCH   = 438
BSTAR          = .16101E-2
MEAN_MOTION_DOT = .248233E-2
MEAN_MOTION_DDOT = 0

CCSDS_OMM_VERS = 2.0
CREATION_DATE  = 
ORIGINATOR     = 

OBJECT_NAME    = STARLINK-37005
OBJECT_ID      = 2026-044G
CENTER_NAME    = EARTH
REF_FRAME      = TEME
TIME_SYSTEM    = UTC
MEAN_ELEMENT_THEORY = SGP/SGP4

EPOCH          = 2026-03-28T03:13:19.629408
MEAN_MOTION    = 15.75229102
ECCENTRICITY   = .0002106
INCLINATION    = 97.2844
RA_OF_ASC_NODE = 48.1846
ARG_OF_PERICENTER = 109.3145
MEAN_ANOMALY   = 250.8348

EPHEMERIS_TYPE = 0
CLASSIFICATION_TYPE = U
NORAD_CAT_ID   = 68107
ELEMENT_SET_NO = 999
REV_AT_EPOCH   = 438
BSTAR          = .67023E-3
MEAN_MOTION_DOT = .101209E-2
MEAN_MOTION_DDOT = 0

